[{"OBJECT_NAME":"METEOSAT-11 (MSG-4)","OBJECT_ID":"2015-034A","EPOCH":"2026-04-05T05:28:38.784288","MEAN_MOTION":1.00276148,"ECCENTRICITY":0.00017449,"INCLINATION":3.0186,"RA_OF_ASC_NODE":71.491,"ARG_OF_PERICENTER":284.9949,"MEAN_ANOMALY":288.5195,"EPHEMERIS_TYPE":0,"CLASSIFICATION_TYPE":"U","NORAD_CAT_ID":40732,"ELEMENT_SET_NO":999,"REV_AT_EPOCH":648,"BSTAR":0,"MEAN_MOTION_DOT":6.5e-7,"MEAN_MOTION_DDOT":0},{"OBJECT_NAME":"ELEKTRO-L 2","OBJECT_ID":"2015-074A","EPOCH":"2026-04-05T05:49:47.989056","MEAN_MOTION":1.00272399,"ECCENTRICITY":0.00025805,"INCLINATION":6.512,"RA_OF_ASC_NODE":71.409,"ARG_OF_PERICENTER":258.9088,"MEAN_ANOMALY":296.2004,"EPHEMERIS_TYPE":0,"CLASSIFICATION_TYPE":"U","NORAD_CAT_ID":41105,"ELEMENT_SET_NO":999,"REV_AT_EPOCH":3777,"BSTAR":0,"MEAN_MOTION_DOT":-1.14e-6,"MEAN_MOTION_DDOT":0},{"OBJECT_NAME":"INSAT-3DR","OBJECT_ID":"2016-054A","EPOCH":"2026-04-05T02:49:43.018464","MEAN_MOTION":1.00273784,"ECCENTRICITY":0.00120863,"INCLINATION":0.1295,"RA_OF_ASC_NODE":86.7921,"ARG_OF_PERICENTER":196.6004,"MEAN_ANOMALY":26.4708,"EPHEMERIS_TYPE":0,"CLASSIFICATION_TYPE":"U","NORAD_CAT_ID":41752,"ELEMENT_SET_NO":999,"REV_AT_EPOCH":3508,"BSTAR":0,"MEAN_MOTION_DOT":-7.6e-7,"MEAN_MOTION_DDOT":0},{"OBJECT_NAME":"HIMAWARI-9","OBJECT_ID":"2016-064A","EPOCH":"2026-04-05T06:34:06.239712","MEAN_MOTION":1.00271058,"ECCENTRICITY":0.00012526,"INCLINATION":0.0486,"RA_OF_ASC_NODE":108.0081,"ARG_OF_PERICENTER":290.7832,"MEAN_ANOMALY":34.0836,"EPHEMERIS_TYPE":0,"CLASSIFICATION_TYPE":"U","NORAD_CAT_ID":41836,"ELEMENT_SET_NO":999,"REV_AT_EPOCH":3447,"BSTAR":0,"MEAN_MOTION_DOT":-2.74e-6,"MEAN_MOTION_DDOT":0},{"OBJECT_NAME":"GOES 16","OBJECT_ID":"2016-071A","EPOCH":"2026-04-05T03:46:38.460576","MEAN_MOTION":1.00272286,"ECCENTRICITY":0.00018268,"INCLINATION":0.1747,"RA_OF_ASC_NODE":85.2956,"ARG_OF_PERICENTER":247.2132,"MEAN_ANOMALY":172.9164,"EPHEMERIS_TYPE":0,"CLASSIFICATION_TYPE":"U","NORAD_CAT_ID":41866,"ELEMENT_SET_NO":999,"REV_AT_EPOCH":3437,"BSTAR":0,"MEAN_MOTION_DOT":-9.0e-7,"MEAN_MOTION_DDOT":0},{"OBJECT_NAME":"FENGYUN 4A","OBJECT_ID":"2016-077A","EPOCH":"2026-04-05T06:29:14.206848","MEAN_MOTION":1.002785,"ECCENTRICITY":0.00078887,"INCLINATION":2.1383,"RA_OF_ASC_NODE":81.0216,"ARG_OF_PERICENTER":139.2503,"MEAN_ANOMALY":194.2574,"EPHEMERIS_TYPE":0,"CLASSIFICATION_TYPE":"U","NORAD_CAT_ID":41882,"ELEMENT_SET_NO":999,"REV_AT_EPOCH":3419,"BSTAR":0,"MEAN_MOTION_DOT":-3.55e-6,"MEAN_MOTION_DDOT":0},{"OBJECT_NAME":"CYGFM05","OBJECT_ID":"2016-078A","EPOCH":"2026-04-05T02:57:33.205536","MEAN_MOTION":15.53585748,"ECCENTRICITY":0.00070713,"INCLINATION":34.9588,"RA_OF_ASC_NODE":23.2481,"ARG_OF_PERICENTER":195.7736,"MEAN_ANOMALY":164.2768,"EPHEMERIS_TYPE":0,"CLASSIFICATION_TYPE":"U","NORAD_CAT_ID":41884,"ELEMENT_SET_NO":999,"REV_AT_EPOCH":51737,"BSTAR":0.00043634241,"MEAN_MOTION_DOT":0.00028781,"MEAN_MOTION_DDOT":0},{"OBJECT_NAME":"CYGFM04","OBJECT_ID":"2016-078B","EPOCH":"2026-04-05T02:36:53.443296","MEAN_MOTION":15.57615584,"ECCENTRICITY":0.00070905,"INCLINATION":34.9342,"RA_OF_ASC_NODE":354.3852,"ARG_OF_PERICENTER":236.6933,"MEAN_ANOMALY":123.3113,"EPHEMERIS_TYPE":0,"CLASSIFICATION_TYPE":"U","NORAD_CAT_ID":41885,"ELEMENT_SET_NO":999,"REV_AT_EPOCH":51758,"BSTAR":0.00047205223,"MEAN_MOTION_DOT":0.00036198,"MEAN_MOTION_DDOT":0},{"OBJECT_NAME":"CYGFM02","OBJECT_ID":"2016-078C","EPOCH":"2026-04-05T02:24:09.924768","MEAN_MOTION":15.59832671,"ECCENTRICITY":0.00080149,"INCLINATION":34.9424,"RA_OF_ASC_NODE":350.7721,"ARG_OF_PERICENTER":235.5477,"MEAN_ANOMALY":124.4491,"EPHEMERIS_TYPE":0,"CLASSIFICATION_TYPE":"U","NORAD_CAT_ID":41886,"ELEMENT_SET_NO":999,"REV_AT_EPOCH":51773,"BSTAR":0.00046507312,"MEAN_MOTION_DOT":0.00038823,"MEAN_MOTION_DDOT":0},{"OBJECT_NAME":"CYGFM01","OBJECT_ID":"2016-078D","EPOCH":"2026-04-05T03:23:44.734272","MEAN_MOTION":15.54164255,"ECCENTRICITY":0.00065918,"INCLINATION":34.9419,"RA_OF_ASC_NODE":24.7393,"ARG_OF_PERICENTER":189.3704,"MEAN_ANOMALY":170.6897,"EPHEMERIS_TYPE":0,"CLASSIFICATION_TYPE":"U","NORAD_CAT_ID":41887,"ELEMENT_SET_NO":999,"REV_AT_EPOCH":51732,"BSTAR":0.00044957823,"MEAN_MOTION_DOT":0.00030293,"MEAN_MOTION_DDOT":0},{"OBJECT_NAME":"CYGFM08","OBJECT_ID":"2016-078E","EPOCH":"2026-04-05T02:05:03.588576","MEAN_MOTION":15.56383482,"ECCENTRICITY":0.00086829,"INCLINATION":34.9454,"RA_OF_ASC_NODE":6.4262,"ARG_OF_PERICENTER":215.9946,"MEAN_ANOMALY":144.0194,"EPHEMERIS_TYPE":0,"CLASSIFICATION_TYPE":"U","NORAD_CAT_ID":41888,"ELEMENT_SET_NO":999,"REV_AT_EPOCH":51756,"BSTAR":0.00044499297,"MEAN_MOTION_DOT":0.00032582,"MEAN_MOTION_DDOT":0},{"OBJECT_NAME":"CYGFM07","OBJECT_ID":"2016-078G","EPOCH":"2026-04-05T02:44:33.771264","MEAN_MOTION":15.56463284,"ECCENTRICITY":0.00075286,"INCLINATION":34.9466,"RA_OF_ASC_NODE":354.6442,"ARG_OF_PERICENTER":235.2612,"MEAN_ANOMALY":124.7404,"EPHEMERIS_TYPE":0,"CLASSIFICATION_TYPE":"U","NORAD_CAT_ID":41890,"ELEMENT_SET_NO":999,"REV_AT_EPOCH":51759,"BSTAR":0.00046542273,"MEAN_MOTION_DOT":0.00034174,"MEAN_MOTION_DDOT":0},{"OBJECT_NAME":"CYGFM03","OBJECT_ID":"2016-078H","EPOCH":"2026-04-05T03:35:12.648480","MEAN_MOTION":15.56468649,"ECCENTRICITY":0.00064899,"INCLINATION":34.9425,"RA_OF_ASC_NODE":356.3756,"ARG_OF_PERICENTER":225.3484,"MEAN_ANOMALY":134.6711,"EPHEMERIS_TYPE":0,"CLASSIFICATION_TYPE":"U","NORAD_CAT_ID":41891,"ELEMENT_SET_NO":999,"REV_AT_EPOCH":51757,"BSTAR":0.00045672722,"MEAN_MOTION_DOT":0.00033528,"MEAN_MOTION_DDOT":0},{"OBJECT_NAME":"FENGYUN 3D","OBJECT_ID":"2017-072A","EPOCH":"2026-04-05T06:37:26.996160","MEAN_MOTION":14.19723968,"ECCENTRICITY":4.2e-5,"INCLINATION":99.0075,"RA_OF_ASC_NODE":68.405,"ARG_OF_PERICENTER":256.2612,"MEAN_ANOMALY":103.8516,"EPHEMERIS_TYPE":0,"CLASSIFICATION_TYPE":"U","NORAD_CAT_ID":43010,"ELEMENT_SET_NO":999,"REV_AT_EPOCH":43464,"BSTAR":0.00019784132,"MEAN_MOTION_DOT":3.72e-6,"MEAN_MOTION_DDOT":0},{"OBJECT_NAME":"NOAA 20 (JPSS-1)","OBJECT_ID":"2017-073A","EPOCH":"2026-04-05T06:14:47.668416","MEAN_MOTION":14.19543353,"ECCENTRICITY":0.00020443,"INCLINATION":98.7725,"RA_OF_ASC_NODE":35.3884,"ARG_OF_PERICENTER":101.7994,"MEAN_ANOMALY":258.3412,"EPHEMERIS_TYPE":0,"CLASSIFICATION_TYPE":"U","NORAD_CAT_ID":43013,"ELEMENT_SET_NO":999,"REV_AT_EPOCH":43412,"BSTAR":7.3658953e-5,"MEAN_MOTION_DOT":1.11e-6,"MEAN_MOTION_DDOT":0},{"OBJECT_NAME":"GOES 17","OBJECT_ID":"2018-022A","EPOCH":"2026-04-05T03:12:38.783808","MEAN_MOTION":1.00271613,"ECCENTRICITY":0.00011925,"INCLINATION":0.7501,"RA_OF_ASC_NODE":86.7952,"ARG_OF_PERICENTER":259.4298,"MEAN_ANOMALY":165.8761,"EPHEMERIS_TYPE":0,"CLASSIFICATION_TYPE":"U","NORAD_CAT_ID":43226,"ELEMENT_SET_NO":999,"REV_AT_EPOCH":2969,"BSTAR":0,"MEAN_MOTION_DOT":-1.81e-6,"MEAN_MOTION_DDOT":0},{"OBJECT_NAME":"FENGYUN 2H","OBJECT_ID":"2018-050A","EPOCH":"2026-04-05T02:51:12.875328","MEAN_MOTION":1.00270591,"ECCENTRICITY":0.000116,"INCLINATION":2.8427,"RA_OF_ASC_NODE":79.9459,"ARG_OF_PERICENTER":170.5694,"MEAN_ANOMALY":64.7485,"EPHEMERIS_TYPE":0,"CLASSIFICATION_TYPE":"U","NORAD_CAT_ID":43491,"ELEMENT_SET_NO":999,"REV_AT_EPOCH":2870,"BSTAR":0,"MEAN_MOTION_DOT":-1.24e-6,"MEAN_MOTION_DDOT":0}]
